OBJECT_NAME,OBJECT_ID,EPOCH,MEAN_MOTION,ECCENTRICITY,INCLINATION,RA_OF_ASC_NODE,ARG_OF_PERICENTER,MEAN_ANOMALY,EPHEMERIS_TYPE,CLASSIFICATION_TYPE,NORAD_CAT_ID,ELEMENT_SET_NO,REV_AT_EPOCH,BSTAR,MEAN_MOTION_DOT,MEAN_MOTION_DDOT
STARLINK-36369,2026-026C,2026-06-15T02:52:34.172544,15.33449420,.00006886,97.2844,219.2886,99.0124,261.1196,0,U,67723,999,1905,.50675544E-3,.16322E-3,0
STARLINK-36752,2026-026D,2026-06-15T02:48:38.022336,15.33459660,.00001045,97.2834,219.2938,97.9634,262.1621,0,U,67724,999,1905,.81815108E-3,.26442E-3,0
STARLINK-36754,2026-026E,2026-06-15T02:44:44.077056,15.33447464,.00004309,97.2839,219.2953,255.5293,104.5902,0,U,67725,999,1905,.619671E-3,.19985E-3,0
STARLINK-36755,2026-026F,2026-06-15T02:40:49.238400,15.33450158,.00003556,97.2848,219.2980,165.0453,195.0800,0,U,67726,999,1905,.49691512E-3,.16004E-3,0
STARLINK-36741,2026-026G,2026-06-15T07:18:48.419712,15.33410508,.0001462,97.2857,219.4942,108.8171,251.3231,0,U,67727,999,1908,.52547E-3,.16909E-3,0
STARLINK-36757,2026-026H,2026-06-14T15:35:13.167744,15.33440468,.00009234,97.2841,218.8561,104.2855,255.8490,0,U,67728,999,1898,.60096015E-3,.19373E-3,0
STARLINK-36751,2026-026J,2026-06-15T10:14:59.969472,15.33439254,.00012779,97.2840,219.6370,99.9835,260.1552,0,U,67729,999,1910,.44910889E-3,.14449E-3,0
STARLINK-36747,2026-026K,2026-06-15T10:18:56.599200,15.33406248,.00015566,97.2877,219.6367,114.4070,245.7336,0,U,67730,999,1910,.60559073E-3,.19503E-3,0
STARLINK-36315,2026-026L,2026-06-15T10:11:04.905312,15.33451479,.00002156,97.2863,219.6414,264.9222,95.1996,0,U,67731,999,1910,.48363343E-3,.15574E-3,0
STARLINK-36260,2026-026M,2026-06-15T10:07:10.000128,15.33455083,.00001472,97.2861,219.6450,173.0117,187.1127,0,U,67732,999,1910,.53556122E-3,.1726E-3,0
STARLINK-36746,2026-026N,2026-06-15T10:03:15.000768,15.33453365,.00010259,97.2853,219.6430,101.5749,258.5609,0,U,67733,999,1910,.55989662E-3,.18048E-3,0
STARLINK-36749,2026-026P,2026-06-15T03:43:28.090272,15.33447298,.00014071,97.2838,219.3926,89.0216,271.1188,0,U,67734,999,1906,.53137628E-3,.1712E-3,0
STARLINK-36691,2026-026Q,2026-06-15T14:33:24.364800,15.33454177,.00004692,97.2861,219.8527,92.3279,267.8018,0,U,67735,999,1913,.4720921E-3,.15201E-3,0
STARLINK-36317,2026-026R,2026-06-15T14:37:19.352928,15.33455064,.00003141,97.2863,219.8492,122.1029,238.0245,0,U,67736,999,1913,.62829877E-3,.20269E-3,0
STARLINK-36330,2026-026S,2026-06-15T14:29:29.659200,15.33448163,.00006384,97.2844,219.8539,145.3850,214.7434,0,U,67737,999,1913,.43651163E-3,.14045E-3,0
STARLINK-36327,2026-026T,2026-06-15T14:25:34.813632,15.33460890,.00017112,97.2827,219.8570,343.9595,16.1593,0,U,67738,999,1913,.76718777E-3,.24787E-3,0
STARLINK-36329,2026-026U,2026-06-15T14:02:05.143200,15.33447596,.00006468,97.2820,219.8779,316.1093,44.0098,0,U,67739,999,1913,.41018242E-3,.13191E-3,0
STARLINK-36737,2026-026V,2026-06-15T14:21:38.874240,15.33463202,.00005293,97.2851,219.8623,256.7163,103.4021,0,U,67740,999,1913,.66133213E-3,.21348E-3,0
STARLINK-36740,2026-026W,2026-06-15T14:06:00.038016,15.33460497,.0000444,97.2853,219.8769,102.7992,257.3301,0,U,67741,999,1913,.69008899E-3,.2228E-3,0
STARLINK-36693,2026-026X,2026-06-15T14:17:44.813184,15.33452414,.00007617,97.2846,219.8664,94.1862,265.9468,0,U,67742,999,1913,.47209445E-3,.152E-3,0
STARLINK-36717,2026-026Y,2026-06-15T14:09:55.015776,15.33461031,.00007035,97.2853,219.8738,108.5327,251.5992,0,U,67743,999,1913,.64628692E-3,.20857E-3,0
STARLINK-36692,2026-026Z,2026-06-15T14:13:49.718784,15.33457250,.00003706,97.2855,219.8696,179.5648,180.5596,0,U,67744,999,1913,.75497157E-3,.24386E-3,0
2026-027A,2026-027A,2026-06-15T07:08:49.749792,15.19109702,.0009198,97.5065,294.4914,214.6590,145.4045,0,U,67746,999,1867,.2775E-3,.5762E-4,0
2026-027B,2026-027B,2026-06-15T08:32:15.434016,15.19204107,.00093287,97.5060,294.5590,216.7046,143.3551,0,U,67747,999,1868,.26496931E-3,.5514E-4,0
2026-027C,2026-027C,2026-06-15T08:49:44.935680,15.18813716,.00098438,97.5075,294.5636,219.6341,140.4175,0,U,67748,999,1868,.20690485E-3,.4242E-4,0
2026-027D,2026-027D,2026-06-15T07:38:08.639520,15.19835735,.00092554,97.5063,294.6172,224.4884,135.5608,0,U,67749,999,1863,.30837319E-3,.6549E-4,0
2026-027E,2026-027E,2026-06-15T07:54:56.513664,15.19543324,.00085725,97.5077,294.6214,225.6823,134.3710,0,U,67750,999,1868,.25054952E-3,.5261E-4,0
2026-027F,2026-027F,2026-06-15T14:26:55.792896,15.12256638,.00112331,97.5073,294.1139,118.5978,241.6384,0,U,67751,999,1867,.9088021E-4,.1509E-4,0
2026-027G,2026-027G,2026-06-15T08:12:31.812768,15.13375402,.00109255,97.5069,293.6830,253.1087,106.8947,0,U,67752,999,1862,.2525332E-3,.4445E-4,0
2025-313BF,2025-313BF,2026-06-15T11:00:49.217472,15.51511908,.00044616,97.3864,244.0376,283.9135,76.1621,0,U,67755,999,2155,.1440157E-2,.85872E-3,0
ELEKTRO-L 5,2026-028A,2026-06-15T01:22:31.046592,1.00271134,.00017621,0.2554,310.8802,180.7355,228.4002,0,U,67756,999,123,0,-.92E-6,0
JAM-E JAM 1,2026-028B,2026-06-15T13:13:21.236736,1.00274626,.00012186,0.2636,301.8572,299.2839,254.9684,0,U,67757,999,110,0,.158E-5,0
KUIPER-00159,2026-030A,2026-06-15T13:04:59.829888,15.38177328,.00071997,51.8853,106.2915,42.0057,318.1481,0,U,67764,999,2014,.97292724E-3,.36969E-3,0
KUIPER-00160,2026-030B,2026-06-15T13:05:06.576864,15.38573215,.00068947,51.8818,106.2461,51.3850,308.7754,0,U,67765,999,2014,.86488668E-3,.33231E-3,0
KUIPER-00177,2026-030C,2026-06-15T04:46:08.973408,14.79928101,.00006344,51.9002,141.9375,79.7978,280.3056,0,U,67766,999,1961,.29326572E-3,.2015E-4,0
KUIPER-00178,2026-030D,2026-06-15T05:25:40.903968,14.76498130,.0000678,51.8991,141.7348,39.1301,320.9708,0,U,67767,999,1962,.2546991E-3,.1576E-4,0
KUIPER-00180,2026-030E,2026-06-15T04:05:16.690848,14.79937147,.00005999,51.8980,137.0547,68.6220,291.4806,0,U,67768,999,1968,.29852507E-3,.2056E-4,0
KUIPER-00197,2026-030F,2026-06-15T02:43:07.315968,14.76322165,.00021221,51.8990,117.2038,106.4337,253.6857,0,U,67769,999,1995,.2933976E-3,.184E-4,0
KUIPER-00198,2026-030G,2026-06-15T03:28:17.064480,14.79925816,.00007635,51.8981,129.6654,108.0432,252.0614,0,U,67770,999,1978,-.79904157E-4,-.83E-5,0
KUIPER-00199,2026-030H,2026-06-15T13:06:40.961088,15.36303930,.00116642,51.8809,107.7199,50.3782,309.8232,0,U,67771,999,2012,.59656803E-3,.21156E-3,0
KUIPER-00200,2026-030J,2026-06-15T14:00:01.999872,15.10878625,.00038516,51.8886,114.4058,73.6430,313.5817,0,U,67772,999,432,-.86020559E-3,-.14761E-3,0
KUIPER-00203,2026-030K,2026-06-15T03:01:06.466656,14.79924550,.00006645,51.9051,147.2882,61.2671,298.8358,0,U,67773,999,1953,-.2959668E-5,-.244E-5,0
KUIPER-00205,2026-030L,2026-06-15T14:00:01.999872,14.89745884,.00053269,51.9068,110.3548,354.6610,355.1118,0,U,67774,999,360,-.17201626E-2,-.16857E-3,0
KUIPER-00208,2026-030M,2026-06-15T03:53:24.190656,14.76447514,.00077467,51.8970,138.8427,29.2869,330.8524,0,U,67775,999,1965,.25385095E-3,.1567E-4,0
KUIPER-00209,2026-030N,2026-06-15T04:53:53.420064,14.79932469,.00004534,51.9003,136.9943,34.3751,325.7241,0,U,67776,999,1968,.16914489E-3,.1069E-4,0
KUIPER-00213,2026-030P,2026-06-15T13:52:38.534592,14.79932504,.00009225,51.8951,132.8298,79.4650,280.6416,0,U,67777,999,1977,.35869203E-3,.2514E-4,0
KUIPER-00214,2026-030Q,2026-06-15T05:01:41.562912,14.79928706,.00006884,51.8999,131.9595,69.8933,290.2103,0,U,67778,999,1975,-.12840141E-4,-.319E-5,0
KUIPER-00215,2026-030R,2026-06-15T02:53:48.556896,14.76425183,.00006398,51.8983,119.0136,40.0592,320.0416,0,U,67779,999,1993,.2781654E-3,.1738E-4,0
KUIPER-00218,2026-030S,2026-06-15T11:26:36.233664,14.79933074,.00011271,51.8965,133.1904,94.4478,265.6613,0,U,67780,999,1976,.4087273E-2,.31082E-3,0
KUIPER-00220,2026-030T,2026-06-15T13:12:08.592480,15.10500972,.00093686,51.8898,110.6202,59.1739,301.0157,0,U,67781,999,2008,-.71608432E-3,-.12229E-3,0
KUIPER-00222,2026-030U,2026-06-15T04:16:57.781056,14.79936429,.00006032,51.8978,129.6647,48.1279,311.9735,0,U,67782,999,1978,.30067404E-3,.2072E-4,0
KUIPER-00223,2026-030V,2026-06-15T13:23:30.805152,14.79930499,.00009909,51.9017,120.2730,87.0212,273.0864,0,U,67783,999,1995,.40010774E-3,.283E-4,0
KUIPER-00225,2026-030W,2026-06-15T03:32:05.753184,14.79867548,.000123,51.8976,127.2577,98.9609,261.1492,0,U,67784,999,1981,-.14042427E-2,-.10892E-3,0
KUIPER-00226,2026-030X,2026-06-15T13:41:19.565376,15.22970472,.00192542,51.8800,114.4339,55.7107,304.5693,0,U,67785,999,2003,.42532349E-3,.9851E-4,0
KUIPER-00259,2026-030Y,2026-06-15T04:20:32.581824,14.79997428,.00005549,51.8975,127.0111,224.9966,135.0951,0,U,67786,999,1982,.34245552E-3,.2394E-4,0
KUIPER-00260,2026-030Z,2026-06-13T15:04:53.900832,14.76999930,.00005686,51.8995,131.4453,60.3261,299.7756,0,U,67787,999,1953,.15861913E-1,.114555E-2,0
KUIPER-00262,2026-030AA,2026-06-15T03:35:36.849120,14.80009470,.00004715,51.9009,124.6560,79.6832,280.4184,0,U,67788,999,1985,.36039133E-3,.2532E-4,0
KUIPER-00266,2026-030AB,2026-06-15T04:28:24.918528,14.79958914,.00043642,51.8998,121.9953,87.3210,272.8252,0,U,67789,999,1989,.34210639E-3,.2389E-4,0
KUIPER-00268,2026-030AC,2026-06-15T13:27:21.536352,14.79959647,.00010607,51.9038,117.8442,98.1979,261.9103,0,U,67790,999,1998,.39743541E-3,.2812E-4,0
KUIPER-00270,2026-030AD,2026-06-15T14:00:01.999872,15.06101930,.00108946,51.8938,109.0807,30.3729,196.5182,0,U,67791,999,405,-.36012277E-2,-.53212E-3,0
KUIPER-00274,2026-030AE,2026-06-15T02:36:01.375200,14.79924357,.00014443,51.9007,132.3292,134.7468,225.3612,0,U,67792,999,1974,.12028064E-2,.8958E-4,0
KUIPER-00275,2026-030AF,2026-06-15T14:00:01.999872,14.92073453,.00087056,51.8967,110.6142,54.0474,26.7844,0,U,67793,999,467,-.29209211E-2,-.30111E-3,0
KUIPER-00276,2026-030AG,2026-06-15T14:00:01.999872,14.96957807,.00175733,51.9009,115.7728,27.3255,129.6220,0,U,67794,999,571,-.136791E-4,-.424E-5,0
KUIPER-00279,2026-030AH,2026-06-15T14:00:01.999872,15.20024354,.00094475,51.8851,107.6037,33.3963,116.9609,0,U,67795,999,553,.29647343E-3,.616E-4,0
